SL-3 R/B                
1 19046U 88032B   17161.93612872  .00000406  00000-0  34944-4 0  9993
2 19046  97.5312 209.0369 0035890 353.7255   6.3516 15.02230538571411
SL-16 R/B               
1 19120U 88039B   17161.67779720  .00000115  00000-0  77468-4 0  9995
2 19120  71.0146 338.6758 0022787 203.3450 156.6642 14.19169340505465
COSMOS 1953             
1 19210U 88050A   17161.77940307 -.00000009  00000-0 -26211-5 0  9995
2 19210  82.5175  39.6045 0011533 284.8162  75.1787 15.05263247555740
SL-8 R/B                
1 19257U 88053B   17161.75580765  .00000065  00000-0  30599-4 0  9998
2 19257  74.0489 228.3636 0019387 122.2491  16.2523 14.37360840517566
COSMOS 1975             
1 19573U 88093A   17161.61852470  .00000442  00000-0  29788-4 0  9990
2 19573  82.5196 351.8387 0013577 326.2679  33.7682 15.04168569537684
SL-14 R/B               
1 19574U 88093B   17161.92413734  .00000062  00000-0  46165-5 0  9998
2 19574  82.5307 150.9256 0022783 134.3163 253.1522 14.83219695527433
SL-16 R/B               
1 19650U 88102B   17161.79125244  .00000008  00000-0  28509-4 0  9996
2 19650  71.0006  28.5465 0014951 200.9828 159.0684 14.15761360475087
INTERCOSMOS 24          
1 20261U 89080A   17161.72812544  .00000207  00000-0  52115-4 0  9992
2 20261  82.5927  14.1334 1205042 111.6174 261.7497 12.55879788265567
SL-14 R/B               
1 20262U 89080C   17161.77050242  .00000026  00000-0  74796-5 0  9996
2 20262  82.5969  60.2080 1236038 271.2094  74.8022 12.48863376261344
DELTA 1 R/B             
1 20323U 89089B   17161.90255846  .00000052  00000-0  22430-4 0  9991
2 20323  97.1090 108.7474 0073434  99.9838 260.9656 14.48199219433288
DELTA 2 R/B(1)          
1 20453U 90008B   17161.72424734  .00001042  00000-0  63386-4 0  9997
2 20453  35.6245 268.2681 0288817 114.4811 248.6307 14.83112570447241
COSMOS 2058             
1 20465U 90010A   17161.80400355  .00000263  00000-0  20260-4 0  9993
2 20465  82.4908 253.9896 0014455 320.9016  39.1160 14.97512213463279
SL-14 R/B               
1 20466U 90010B   17161.75409843  .00000074  00000-0  64738-5 0  9998
2 20466  82.5032  18.6295 0020633   4.1417 355.9964 14.81281996455488
SL-14 R/B               
1 20511U 90018B   17161.90508853  .00000060  00000-0  47730-5 0  9993
2 20511  82.5220 319.9558 0018684 130.5511  21.8755 14.79941051450034
HST                     
1 20580U 90037B   17161.94842593  .00000434  00000-0  15758-4 0  9995
2 20580  28.4706  48.7436 0002923 106.3763  71.6244 15.08778964289253
SL-16 R/B               
1 20625U 90046B   17161.41967522 -.00000220  00000-0 -89379-4 0  9992
2 20625  70.9960 163.3436 0012427 123.1135 237.1182 14.14613157396629
COSMOS 2084             
1 20663U 90055A   17161.79172287  .00000005  00000-0  18404-4 0  9991
2 20663  62.7921 249.4742 0140718  89.3927 272.3288 14.91576746458859
SL-6 R/B(2)             
1 20666U 90055D   17161.51975664 -.00000046  00000-0  14281-4 0  9999
2 20666  62.7824 169.1881 0131527 108.5097 253.0341 14.91927134460711
SL-8 R/B                
1 20775U 90078B   17161.24255199  .00002767  00000-0  13731-3 0  9998
2 20775  82.9310  53.8980 0588973   3.8132 356.7250 14.30608957347786
SL-8 R/B                
1 21088U 91006B   17161.80916838  .00000086  00000-0  71806-4 0  9994
2 21088  82.9428  24.9833 0022113 341.7478  69.4401 13.77055644324720
OKEAN-3                 
1 21397U 91039A   17161.95609676  .00000181  00000-0  15089-4 0  9995
2 21397  82.5207 144.3338 0016314 257.2582 102.6814 14.92485967387791
COSMOS 2151             
1 21422U 91042A   17161.82729924  .00000186  00000-0  15897-4 0  9995
2 21422  82.5017 252.4949 0013139 320.7839  39.2427 14.91824963386472
SL-14 R/B               
1 21423U 91042B   17161.90749892  .00000055  00000-0  42594-5 0  9991
2 21423  82.4928 327.2815 0016081 271.2279  88.7091 14.79693230380616
ERS-1                   
1 21574U 91050A   17161.86173310  .00000044  00000-0  29069-4 0  9997
2 21574  98.4593 109.1184 0032589 336.1422  23.8253 14.37586860356679
ARIANE 40 R/B           
1 21610U 91050F   17161.73333091  .00000014  00000-0  18415-4 0  9998
2 21610  98.6051 218.2531 0002516 345.2223 162.7083 14.40797253359183
INTERCOSMOS 25          
1 21819U 91086A   17161.72866262  .00000155  00000-0  22323-4 0  9997
2 21819  82.5598  66.8906 1525132 100.6236 276.9678 12.04510440111483
SL-14 R/B               
1 21820U 91086B   17161.88765402  .00000031  00000-0  64775-5 0  9991
2 21820  82.5617 122.2073 1575655 288.1165  55.4933 11.93309882106039
SL-8 R/B                
1 21876U 92008B   17161.92557642  .00000058  00000-0  44169-4 0  9990
2 21876  82.9260 121.8686 0036068  53.1291 329.5253 13.75604905270298
SL-8 R/B                
1 21938U 92020B   17161.72547708 -.00000018  00000-0 -34257-4 0  9998
2 21938  82.9290   5.2630 0028527 207.9248 200.1688 13.75251766262106
SL-16 R/B               
1 22220U 92076B   17161.12957285 -.00000256  00000-0 -10429-3 0  9991
2 22220  71.0011  74.1068 0015096 281.6266 178.1818 14.16415346269442
SL-16 R/B               
1 22285U 92093B   17161.73137938 -.00000067  00000-0 -10110-4 0  9991
2 22285  71.0210 225.8236 0003293 167.4004 192.7201 14.15007372261628
COSMOS 2228             
1 22286U 92094A   17161.72597558  .00000192  00000-0  18219-4 0  9995
2 22286  82.5213  20.1971 0021542 139.6959 220.5860 14.87666700321531
SL-16 R/B               
1 22566U 93016B   17161.77348138 -.00000274  00000-0 -11679-3 0  9999
2 22566  71.0086  80.3885 0009099 155.2358 204.9203 14.14948571250363
COSMOS 2242             
1 22626U 93024A   17161.81228738  .00000185  00000-0  17449-4 0  9994
2 22626  82.5232  47.8335 0020033 138.3571 221.9177 14.87664098305200
SL-16 R/B               
1 22803U 93059B   17161.80069957  .00000035  00000-0  41617-4 0  9992
2 22803  70.9912 262.8933 0016085  28.8510 331.3499 14.16773954227372
ARIANE 40 R/B           
1 22830U 93061H   17161.72586184 -.00000047  00000-0 -29668-6 0  9991
2 22830  98.8835 176.9828 0009925 311.2110 179.4041 14.31411128237322
COSMOS 2278             
1 23087U 94023A   17161.76438342  .00000324  00000-0  19607-3 0  9996
2 23087  71.0534  12.4024 0010238 230.1841 129.8380 14.13744136193343
SL-16 R/B               
1 23088U 94023B   17161.76792123  .00000245  00000-0  15224-3 0  9990
2 23088  71.0001 295.5262 0001744 137.0417 223.0842 14.14654025194368
SL-16 R/B               
1 23343U 94074B   17161.71562632 -.00000022  00000-0  44471-5 0  9997
2 23343  98.1533 198.7374 0008327  93.6410  44.9629 14.76700253215667
SL-16 R/B               
1 23405U 94077B   17161.63331289 -.00000014  00000-0  17296-4 0  9997
2 23405  70.9837 229.1766 0004285 304.0594  56.0121 14.15200323164330
ERS-2                   
1 23560U 95021A   17161.91428861  .00001008  00000-0  49899-4 0  9990
2 23560  98.5552 153.4100 0003207 349.7073  10.4093 15.20655657174406
ARIANE 40+ R/B          
1 23561U 95021B   17161.67198896  .00000012  00000-0  19509-4 0  9995
2 23561  98.7927 162.7124 0005734 280.8311 210.4170 14.37816205160319
SL-16 R/B               
1 23705U 95058B   17161.87678353 -.00000275  00000-0 -11727-3 0  9994
2 23705  71.0229  42.2762 0014441 302.1169  57.8551 14.15099601115991
SL-16 R/B               
1 24298U 96051B   17161.92001366 -.00000018  00000-0  16631-4 0  9990
2 24298  70.8518  75.3095 0018005 199.6850 160.3578 14.12498446 70670
ORBVIEW 2 (SEASTAR)     
1 24883U 97037A   17161.90501796  .00000031  00000-0  26999-4 0  9997
2 24883  98.5408 270.6390 0003492 115.7195 244.4350 14.33393093 50752
SL-16 R/B               
1 25400U 98043G   17161.89683180 -.00000016  00000-0  11317-4 0  9999
2 25400  98.4882 110.3182 0009077 319.9520  40.0990 14.25411811983954
SL-16 R/B               
1 25407U 98045B   17161.79208126 -.00000001  00000-0  23639-4 0  9994
2 25407  71.0130  54.8724 0009279 227.8662 132.1673 14.15763650975004
ISS (ZARYA)             
1 25544U 98067A   17161.88361154  .00001043  00000-0  23108-4 0  9998
2 25544  51.6429  69.7472 0004518 258.3800 220.3426 15.54005098 60774
SL-8 R/B                
1 25723U 99022C   17161.60803952  .00003367  00000-0  57830-4 0  9996
2 25723  48.4152 202.4832 0010741 358.1618   1.9286 15.54023915  5478
CZ-4B R/B               
1 25732U 99025C   17161.96115354 -.00000020  00000-0  12309-4 0  9996
2 25732  98.9913 163.6317 0038438 108.5685 272.2654 14.17631982935654
OKEAN-O                 
1 25860U 99039A   17161.83940219  .00000021  00000-0  10706-4 0  9994
2 25860  98.1858 146.6265 0001647 106.7129 253.4261 14.76476922962790
SL-16 R/B               
1 25861U 99039B   17161.74032828  .00000007  00000-0  83947-5 0  9995
2 25861  98.1046 133.0075 0017058 101.3819 312.4417 14.78412694964710
TERRA                   
1 25994U 99068A   17161.74995757 -.00000044  00000-0  38330-6 0  9992
2 25994  98.2097 236.8892 0001273  77.3128 282.8213 14.57110466929736
ENVISAT                 
1 27386U 02009A   17161.91476807 -.00000008  00000-0  11022-4 0  9994
2 27386  98.2313 207.4557 0001149  86.5233 273.6082 14.37896833800172
IDEFIX & ARIANE 42P R/B 
1 27422U 02021B   17161.64884832 -.00000029  00000-0  45942-5 0  9992
2 27422  98.2294 162.2872 0010956 254.6150 105.3823 14.29254331785742
AQUA                    
1 27424U 02022A   17161.92016130  .00000094  00000-0  30929-4 0  9993
2 27424  98.2043 103.3048 0002585 106.3152 324.9614 14.57119400803310
CZ-4B R/B               
1 27432U 02024C   17161.93584090 -.00000025  00000-0  10369-4 0  9991
2 27432  98.9870 135.4668 0051368  50.8582 329.1684 14.14044089777835
MIDORI II (ADEOS-II)    
1 27597U 02056A   17161.53233360  .00000022  00000-0  26019-4 0  9990
2 27597  98.3686 131.3761 0001551  46.4301 313.7009 14.27288254754477
H-2A R/B                
1 27601U 02056E   17161.78020256  .00000023  00000-0  23813-4 0  9991
2 27601  98.3766 229.7977 0071203 315.2022 188.9894 14.31782415756896
